ONEWEB-0721             
1 56725U 23068R   25237.38546138  .00000023  00000+0  21066-4 0  9994
2 56725  86.6864 179.8003 0001987  77.5426 282.5929 13.22442889118841
ONEWEB-0015             
1 61594U 24188A   25237.58317309 -.00000362  00000+0 -10583-2 0  9994
2 61594  87.8782  80.0067 0002299  92.8599 267.2792 13.11414696 45710
ONEWEB-0687             
1 61595U 24188B   25237.53533645  .00000104  00000+0  23529-3 0  9990
2 61595  87.9022  64.7366 0002001 107.0048 253.1303 13.17650293 46960
ONEWEB-0688             
1 61596U 24188C   25237.56402353  .00000015  00000+0  45050-5 0  9991
2 61596  87.9020  64.7309 0003026  99.6994 260.4479 13.17649172 46969
ONEWEB-0689             
1 61597U 24188D   25237.61708815  .00000318  00000+0  86023-3 0  9999
2 61597  87.8749  79.9604 0001635  97.0129 263.1185 13.11418080 45711
ONEWEB-0690             
1 61598U 24188E   25237.62726361  .00000545  00000+0  15007-2 0  9992
2 61598  87.8790  79.9312 0001943  63.7911 296.3416 13.11416714 45891
ONEWEB-0691             
1 61599U 24188F   25237.62218478  .00000467  00000+0  12813-2 0  9993
2 61599  87.8707  79.9030 0002127  88.7141 271.4231 13.11418123 45743
ONEWEB-0692             
1 61600U 24188G   25237.56618800  .00000323  00000+0  87409-3 0  9997
2 61600  87.8771  80.0115 0000778  93.7800 266.3417 13.11418112 45727
ONEWEB-0693             
1 61601U 24188H   25237.57582870  .00000031  00000+0  45639-4 0  9992
2 61601  87.9024  64.7465 0002286  69.6888 290.4489 13.17650530 46952
ONEWEB-0695             
1 61602U 24188J   25237.61875876  .00000278  00000+0  74909-3 0  9993
2 61602  87.8777  79.9876 0001342 101.8169 258.3109 13.11415829 45724
ONEWEB-0697             
1 61603U 24188K   25237.57469281 -.00000047  00000+0 -16938-3 0  9992
2 61603  87.8767  79.9880 0000864  84.7373 275.3853 13.11413935 45702
ONEWEB-0698             
1 61604U 24188L   25237.55266488  .00000539  00000+0  14844-2 0  9992
2 61604  87.8771  80.0065 0001239  46.3337 313.7894 13.11416297 45725
ONEWEB-0699             
1 61605U 24188M   25237.55925994 -.00000801  00000+0 -23297-2 0  9993
2 61605  87.8767  95.2155 0001118  73.9859 286.1392 13.10373282 44595
ONEWEB-0700             
1 61606U 24188N   25237.56091870 -.00000674  00000+0 -19662-2 0  9991
2 61606  87.8738  95.1043 0001240 102.5833 257.5433 13.10373838 44580
ONEWEB-0701             
1 61607U 24188P   25237.57751846  .00000038  00000+0  73228-4 0  9991
2 61607  87.8761  95.2181 0000853  73.2987 286.8234 13.10376640 44593
ONEWEB-0702             
1 61608U 24188Q   25237.59843000 -.00000392  00000+0 -11408-2 0  9993
2 61608  87.8710  79.9369 0000883 105.5047 254.6179 13.11417843 45745
ONEWEB-0704             
1 61609U 24188R   25237.56589965 -.00000543  00000+0 -15931-2 0  9991
2 61609  87.8785  95.1668 0000826 106.2708 253.8511 13.10375354 44579
