[{"OBJECT_NAME":"ONEWEB-0721","OBJECT_ID":"2023-068R","EPOCH":"2025-08-25T09:15:03.863232","MEAN_MOTION":13.22442889,"ECCENTRICITY":0.00019878,"INCLINATION":86.6864,"RA_OF_ASC_NODE":179.8003,"ARG_OF_PERICENTER":77.5426,"MEAN_ANOMALY":282.5929,"EPHEMERIS_TYPE":0,"CLASSIFICATION_TYPE":"U","NORAD_CAT_ID":56725,"ELEMENT_SET_NO":999,"REV_AT_EPOCH":11884,"BSTAR":2.1066347e-5,"MEAN_MOTION_DOT":2.3e-7,"MEAN_MOTION_DDOT":0},{"OBJECT_NAME":"ONEWEB-0015","OBJECT_ID":"2024-188A","EPOCH":"2025-08-25T13:59:46.154976","MEAN_MOTION":13.11414696,"ECCENTRICITY":0.00022991,"INCLINATION":87.8782,"RA_OF_ASC_NODE":80.0067,"ARG_OF_PERICENTER":92.8599,"MEAN_ANOMALY":267.2792,"EPHEMERIS_TYPE":0,"CLASSIFICATION_TYPE":"U","NORAD_CAT_ID":61594,"ELEMENT_SET_NO":999,"REV_AT_EPOCH":4571,"BSTAR":-0.0010582794,"MEAN_MOTION_DOT":-3.62e-6,"MEAN_MOTION_DDOT":0},{"OBJECT_NAME":"ONEWEB-0687","OBJECT_ID":"2024-188B","EPOCH":"2025-08-25T12:50:53.069280","MEAN_MOTION":13.17650293,"ECCENTRICITY":0.0002001,"INCLINATION":87.9022,"RA_OF_ASC_NODE":64.7366,"ARG_OF_PERICENTER":107.0048,"MEAN_ANOMALY":253.1303,"EPHEMERIS_TYPE":0,"CLASSIFICATION_TYPE":"U","NORAD_CAT_ID":61595,"ELEMENT_SET_NO":999,"REV_AT_EPOCH":4696,"BSTAR":0.00023529495,"MEAN_MOTION_DOT":1.04e-6,"MEAN_MOTION_DDOT":0},{"OBJECT_NAME":"ONEWEB-0688","OBJECT_ID":"2024-188C","EPOCH":"2025-08-25T13:32:11.632992","MEAN_MOTION":13.17649172,"ECCENTRICITY":0.00030263,"INCLINATION":87.902,"RA_OF_ASC_NODE":64.7309,"ARG_OF_PERICENTER":99.6994,"MEAN_ANOMALY":260.4479,"EPHEMERIS_TYPE":0,"CLASSIFICATION_TYPE":"U","NORAD_CAT_ID":61596,"ELEMENT_SET_NO":999,"REV_AT_EPOCH":4696,"BSTAR":4.505033e-6,"MEAN_MOTION_DOT":1.5e-7,"MEAN_MOTION_DDOT":0},{"OBJECT_NAME":"ONEWEB-0689","OBJECT_ID":"2024-188D","EPOCH":"2025-08-25T14:48:36.416160","MEAN_MOTION":13.1141808,"ECCENTRICITY":0.0001635,"INCLINATION":87.8749,"RA_OF_ASC_NODE":79.9604,"ARG_OF_PERICENTER":97.0129,"MEAN_ANOMALY":263.1185,"EPHEMERIS_TYPE":0,"CLASSIFICATION_TYPE":"U","NORAD_CAT_ID":61597,"ELEMENT_SET_NO":999,"REV_AT_EPOCH":4571,"BSTAR":0.00086022678,"MEAN_MOTION_DOT":3.18e-6,"MEAN_MOTION_DDOT":0},{"OBJECT_NAME":"ONEWEB-0690","OBJECT_ID":"2024-188E","EPOCH":"2025-08-25T15:03:15.575904","MEAN_MOTION":13.11416714,"ECCENTRICITY":0.0001943,"INCLINATION":87.879,"RA_OF_ASC_NODE":79.9312,"ARG_OF_PERICENTER":63.7911,"MEAN_ANOMALY":296.3416,"EPHEMERIS_TYPE":0,"CLASSIFICATION_TYPE":"U","NORAD_CAT_ID":61598,"ELEMENT_SET_NO":999,"REV_AT_EPOCH":4589,"BSTAR":0.0015007053,"MEAN_MOTION_DOT":5.45e-6,"MEAN_MOTION_DDOT":0},{"OBJECT_NAME":"ONEWEB-0691","OBJECT_ID":"2024-188F","EPOCH":"2025-08-25T14:55:56.764992","MEAN_MOTION":13.11418123,"ECCENTRICITY":0.00021273,"INCLINATION":87.8707,"RA_OF_ASC_NODE":79.903,"ARG_OF_PERICENTER":88.7141,"MEAN_ANOMALY":271.4231,"EPHEMERIS_TYPE":0,"CLASSIFICATION_TYPE":"U","NORAD_CAT_ID":61599,"ELEMENT_SET_NO":999,"REV_AT_EPOCH":4574,"BSTAR":0.0012813127,"MEAN_MOTION_DOT":4.67e-6,"MEAN_MOTION_DDOT":0},{"OBJECT_NAME":"ONEWEB-0692","OBJECT_ID":"2024-188G","EPOCH":"2025-08-25T13:35:18.643200","MEAN_MOTION":13.11418112,"ECCENTRICITY":7.789e-5,"INCLINATION":87.8771,"RA_OF_ASC_NODE":80.0115,"ARG_OF_PERICENTER":93.78,"MEAN_ANOMALY":266.3417,"EPHEMERIS_TYPE":0,"CLASSIFICATION_TYPE":"U","NORAD_CAT_ID":61600,"ELEMENT_SET_NO":999,"REV_AT_EPOCH":4572,"BSTAR":0.00087409093,"MEAN_MOTION_DOT":3.23e-6,"MEAN_MOTION_DDOT":0},{"OBJECT_NAME":"ONEWEB-0693","OBJECT_ID":"2024-188H","EPOCH":"2025-08-25T13:49:11.599680","MEAN_MOTION":13.1765053,"ECCENTRICITY":0.00022861,"INCLINATION":87.9024,"RA_OF_ASC_NODE":64.7465,"ARG_OF_PERICENTER":69.6888,"MEAN_ANOMALY":290.4489,"EPHEMERIS_TYPE":0,"CLASSIFICATION_TYPE":"U","NORAD_CAT_ID":61601,"ELEMENT_SET_NO":999,"REV_AT_EPOCH":4695,"BSTAR":4.5639111e-5,"MEAN_MOTION_DOT":3.1e-7,"MEAN_MOTION_DDOT":0},{"OBJECT_NAME":"ONEWEB-0695","OBJECT_ID":"2024-188J","EPOCH":"2025-08-25T14:51:00.756864","MEAN_MOTION":13.11415829,"ECCENTRICITY":0.0001342,"INCLINATION":87.8777,"RA_OF_ASC_NODE":79.9876,"ARG_OF_PERICENTER":101.8169,"MEAN_ANOMALY":258.3109,"EPHEMERIS_TYPE":0,"CLASSIFICATION_TYPE":"U","NORAD_CAT_ID":61602,"ELEMENT_SET_NO":999,"REV_AT_EPOCH":4572,"BSTAR":0.00074909184,"MEAN_MOTION_DOT":2.78e-6,"MEAN_MOTION_DDOT":0},{"OBJECT_NAME":"ONEWEB-0697","OBJECT_ID":"2024-188K","EPOCH":"2025-08-25T13:47:33.458784","MEAN_MOTION":13.11413935,"ECCENTRICITY":8.64e-5,"INCLINATION":87.8767,"RA_OF_ASC_NODE":79.988,"ARG_OF_PERICENTER":84.7373,"MEAN_ANOMALY":275.3853,"EPHEMERIS_TYPE":0,"CLASSIFICATION_TYPE":"U","NORAD_CAT_ID":61603,"ELEMENT_SET_NO":999,"REV_AT_EPOCH":4570,"BSTAR":-0.00016937695,"MEAN_MOTION_DOT":-4.7e-7,"MEAN_MOTION_DDOT":0},{"OBJECT_NAME":"ONEWEB-0698","OBJECT_ID":"2024-188L","EPOCH":"2025-08-25T13:15:50.245632","MEAN_MOTION":13.11416297,"ECCENTRICITY":0.00012393,"INCLINATION":87.8771,"RA_OF_ASC_NODE":80.0065,"ARG_OF_PERICENTER":46.3337,"MEAN_ANOMALY":313.7894,"EPHEMERIS_TYPE":0,"CLASSIFICATION_TYPE":"U","NORAD_CAT_ID":61604,"ELEMENT_SET_NO":999,"REV_AT_EPOCH":4572,"BSTAR":0.0014844188,"MEAN_MOTION_DOT":5.39e-6,"MEAN_MOTION_DDOT":0},{"OBJECT_NAME":"ONEWEB-0699","OBJECT_ID":"2024-188M","EPOCH":"2025-08-25T13:25:20.058816","MEAN_MOTION":13.10373282,"ECCENTRICITY":0.00011187,"INCLINATION":87.8767,"RA_OF_ASC_NODE":95.2155,"ARG_OF_PERICENTER":73.9859,"MEAN_ANOMALY":286.1392,"EPHEMERIS_TYPE":0,"CLASSIFICATION_TYPE":"U","NORAD_CAT_ID":61605,"ELEMENT_SET_NO":999,"REV_AT_EPOCH":4459,"BSTAR":-0.0023297327,"MEAN_MOTION_DOT":-8.01e-6,"MEAN_MOTION_DDOT":0},{"OBJECT_NAME":"ONEWEB-0700","OBJECT_ID":"2024-188N","EPOCH":"2025-08-25T13:27:43.375680","MEAN_MOTION":13.10373838,"ECCENTRICITY":0.00012409,"INCLINATION":87.8738,"RA_OF_ASC_NODE":95.1043,"ARG_OF_PERICENTER":102.5833,"MEAN_ANOMALY":257.5433,"EPHEMERIS_TYPE":0,"CLASSIFICATION_TYPE":"U","NORAD_CAT_ID":61606,"ELEMENT_SET_NO":999,"REV_AT_EPOCH":4458,"BSTAR":-0.0019661637,"MEAN_MOTION_DOT":-6.74e-6,"MEAN_MOTION_DDOT":0},{"OBJECT_NAME":"ONEWEB-0701","OBJECT_ID":"2024-188P","EPOCH":"2025-08-25T13:51:37.594944","MEAN_MOTION":13.1037664,"ECCENTRICITY":8.536e-5,"INCLINATION":87.8761,"RA_OF_ASC_NODE":95.2181,"ARG_OF_PERICENTER":73.2987,"MEAN_ANOMALY":286.8234,"EPHEMERIS_TYPE":0,"CLASSIFICATION_TYPE":"U","NORAD_CAT_ID":61607,"ELEMENT_SET_NO":999,"REV_AT_EPOCH":4459,"BSTAR":7.3228157e-5,"MEAN_MOTION_DOT":3.8e-7,"MEAN_MOTION_DDOT":0},{"OBJECT_NAME":"ONEWEB-0702","OBJECT_ID":"2024-188Q","EPOCH":"2025-08-25T14:21:44.352000","MEAN_MOTION":13.11417843,"ECCENTRICITY":8.834e-5,"INCLINATION":87.871,"RA_OF_ASC_NODE":79.9369,"ARG_OF_PERICENTER":105.5047,"MEAN_ANOMALY":254.6179,"EPHEMERIS_TYPE":0,"CLASSIFICATION_TYPE":"U","NORAD_CAT_ID":61608,"ELEMENT_SET_NO":999,"REV_AT_EPOCH":4574,"BSTAR":-0.0011408005,"MEAN_MOTION_DOT":-3.92e-6,"MEAN_MOTION_DDOT":0},{"OBJECT_NAME":"ONEWEB-0704","OBJECT_ID":"2024-188R","EPOCH":"2025-08-25T13:34:53.729760","MEAN_MOTION":13.10375354,"ECCENTRICITY":8.264e-5,"INCLINATION":87.8785,"RA_OF_ASC_NODE":95.1668,"ARG_OF_PERICENTER":106.2708,"MEAN_ANOMALY":253.8511,"EPHEMERIS_TYPE":0,"CLASSIFICATION_TYPE":"U","NORAD_CAT_ID":61609,"ELEMENT_SET_NO":999,"REV_AT_EPOCH":4457,"BSTAR":-0.0015930564,"MEAN_MOTION_DOT":-5.43e-6,"MEAN_MOTION_DDOT":0}]
